{
  "type": "FeatureCollection",
  "features": [
    {
      "type": "Feature",
      "properties": {
        "norad_id": 29268,
        "name": "ARIRANG-2 (KOMPSAT-2)",
        "group": "resource",
        "lat": 35.23638188234165,
        "lon": 177.7954535543307,
        "alt_km": 680.3686470931416,
        "timestamp": "2025-12-21T07:34:34.197137+00:00",
        "meta_object_name": "ARIRANG-2 (KOMPSAT-2)",
        "meta_object_id": "2006-031A",
        "meta_epoch": "2025-12-20T23:54:48.680928",
        "meta_mean_motion": 14.6450107,
        "meta_eccentricity": 0.00131533,
        "meta_inclination": 97.8253,
        "meta_ra_of_asc_node": 183.0666,
        "meta_arg_of_pericenter": 280.8405,
        "meta_mean_anomaly": 232.4541,
        "meta_ephemeris_type": 0,
        "meta_classification_type": "U",
        "meta_norad_cat_id": 29268,
        "meta_element_set_no": 999,
        "meta_rev_at_epoch": 3539,
        "meta_bstar": 9.0456959e-05,
        "meta_mean_motion_dot": 4.35e-06,
        "meta_mean_motion_ddot": 0,
        "tle_line1": "1 29268U 06031A   25354.99639677  .00000435  00000+0  90457-4 0  9992",
        "tle_line2": "2 29268  97.8253 183.0666 0013153 280.8405 232.4541 14.64501070 35392"
      },
      "geometry": {
        "type": "Point",
        "coordinates": [
          177.7954535543307,
          35.23638188234165
        ]
      }
    },
    {
      "type": "Feature",
      "properties": {
        "norad_id": 29709,
        "name": "LAPAN-TUBSAT",
        "group": "resource",
        "lat": -79.45205845252957,
        "lon": 115.54102863520419,
        "alt_km": 626.4784608286545,
        "timestamp": "2025-12-21T07:34:34.197147+00:00",
        "meta_object_name": "LAPAN-TUBSAT",
        "meta_object_id": "2007-001A",
        "meta_epoch": "2025-12-20T22:18:46.338336",
        "meta_mean_motion": 14.85681405,
        "meta_eccentricity": 0.00133438,
        "meta_inclination": 98.1251,
        "meta_ra_of_asc_node": 345.2543,
        "meta_arg_of_pericenter": 50.0812,
        "meta_mean_anomaly": 310.1573,
        "meta_ephemeris_type": 0,
        "meta_classification_type": "U",
        "meta_norad_cat_id": 29709,
        "meta_element_set_no": 999,
        "meta_rev_at_epoch": 2468,
        "meta_bstar": 7.2754839e-05,
        "meta_mean_motion_dot": 5.74e-06,
        "meta_mean_motion_ddot": 0,
        "tle_line1": "1 29709U 07001A   25354.92970299  .00000574  00000+0  72755-4 0  9996",
        "tle_line2": "2 29709  98.1251 345.2543 0013343  50.0812 310.1573 14.85681405 24683"
      },
      "geometry": {
        "type": "Point",
        "coordinates": [
          115.54102863520419,
          -79.45205845252957
        ]
      }
    },
    {
      "type": "Feature",
      "properties": {
        "norad_id": 31113,
        "name": "HAIYANG-1B",
        "group": "resource",
        "lat": -78.32405380134324,
        "lon": 114.07268160438625,
        "alt_km": 799.5073950865972,
        "timestamp": "2025-12-21T07:34:34.197157+00:00",
        "meta_object_name": "HAIYANG-1B",
        "meta_object_id": "2007-010A",
        "meta_epoch": "2025-12-20T20:17:13.259040",
        "meta_mean_motion": 14.30967553,
        "meta_eccentricity": 0.00138665,
        "meta_inclination": 98.3321,
        "meta_ra_of_asc_node": 338.7888,
        "meta_arg_of_pericenter": 14.9776,
        "meta_mean_anomaly": 345.1816,
        "meta_ephemeris_type": 0,
        "meta_classification_type": "U",
        "meta_norad_cat_id": 31113,
        "meta_element_set_no": 999,
        "meta_rev_at_epoch": 97512,
        "meta_bstar": 4.2055658e-05,
        "meta_mean_motion_dot": 6.9e-07,
        "meta_mean_motion_ddot": 0,
        "tle_line1": "1 31113U 07010A   25354.84529235  .00000069  00000+0  42056-4 0  9999",
        "tle_line2": "2 31113  98.3321 338.7888 0013866  14.9776 345.1816 14.30967553975125"
      },
      "geometry": {
        "type": "Point",
        "coordinates": [
          114.07268160438625,
          -78.32405380134324
        ]
      }
    },
    {
      "type": "Feature",
      "properties": {
        "norad_id": 31598,
        "name": "COSMO-SKYMED 1",
        "group": "resource",
        "lat": 8.547491976632372,
        "lon": 1.96440887190248,
        "alt_km": 581.6641070021424,
        "timestamp": "2025-12-21T07:34:34.197167+00:00",
        "meta_object_name": "COSMO-SKYMED 1",
        "meta_object_id": "2007-023A",
        "meta_epoch": "2025-12-20T22:47:09.130272",
        "meta_mean_motion": 14.95824569,
        "meta_eccentricity": 0.00015611,
        "meta_inclination": 97.8838,
        "meta_ra_of_asc_node": 180.4025,
        "meta_arg_of_pericenter": 82.7784,
        "meta_mean_anomaly": 277.3614,
        "meta_ephemeris_type": 0,
        "meta_classification_type": "U",
        "meta_norad_cat_id": 31598,
        "meta_element_set_no": 999,
        "meta_rev_at_epoch": 313,
        "meta_bstar": 0.00024449161,
        "meta_mean_motion_dot": 2.671e-05,
        "meta_mean_motion_ddot": 0,
        "tle_line1": "1 31598U 07023A   25354.94941123  .00002671  00000+0  24449-3 0  9991",
        "tle_line2": "2 31598  97.8838 180.4025 0001561  82.7784 277.3614 14.95824569  3130"
      },
      "geometry": {
        "type": "Point",
        "coordinates": [
          1.96440887190248,
          8.547491976632372
        ]
      }
    },
    {
      "type": "Feature",
      "properties": {
        "norad_id": 31698,
        "name": "TERRASAR-X",
        "group": "resource",
        "lat": -6.798423526347047,
        "lon": 179.6778278642517,
        "alt_km": 512.4790612180786,
        "timestamp": "2025-12-21T07:34:34.197176+00:00",
        "meta_object_name": "TERRASAR-X",
        "meta_object_id": "2007-026A",
        "meta_epoch": "2025-12-20T11:47:12.844032",
        "meta_mean_motion": 15.19153914,
        "meta_eccentricity": 0.0001874,
        "meta_inclination": 97.4453,
        "meta_ra_of_asc_node": 359.7585,
        "meta_arg_of_pericenter": 92.6145,
        "meta_mean_anomaly": 267.5304,
        "meta_ephemeris_type": 0,
        "meta_classification_type": "U",
        "meta_norad_cat_id": 31698,
        "meta_element_set_no": 999,
        "meta_rev_at_epoch": 2609,
        "meta_bstar": 3.1273e-05,
        "meta_mean_motion_dot": 5.9e-06,
        "meta_mean_motion_ddot": 0,
        "tle_line1": "1 31698U 07026A   25354.49112088  .00000590  00000+0  31273-4 0  9997",
        "tle_line2": "2 31698  97.4453 359.7585 0001874  92.6145 267.5304 15.19153914 26093"
      },
      "geometry": {
        "type": "Point",
        "coordinates": [
          179.6778278642517,
          -6.798423526347047
        ]
      }
    },
    {
      "type": "Feature",
      "properties": {
        "norad_id": 32060,
        "name": "WORLDVIEW-1 (WV-1)",
        "group": "resource",
        "lat": -4.473642346555103,
        "lon": 113.25511437702123,
        "alt_km": 495.4540646573723,
        "timestamp": "2025-12-21T07:34:34.197186+00:00",
        "meta_object_name": "WORLDVIEW-1 (WV-1)",
        "meta_object_id": "2007-041A",
        "meta_epoch": "2025-12-20T18:59:18.405600",
        "meta_mean_motion": 15.23882673,
        "meta_eccentricity": 0.00034699,
        "meta_inclination": 97.3825,
        "meta_ra_of_asc_node": 112.1576,
        "meta_arg_of_pericenter": 9.726,
        "meta_mean_anomaly": 350.4044,
        "meta_ephemeris_type": 0,
        "meta_classification_type": "U",
        "meta_norad_cat_id": 32060,
        "meta_element_set_no": 999,
        "meta_rev_at_epoch": 1570,
        "meta_bstar": 0.00023844898,
        "meta_mean_motion_dot": 5.686e-05,
        "meta_mean_motion_ddot": 0,
        "tle_line1": "1 32060U 07041A   25354.79118525  .00005686  00000+0  23845-3 0  9999",
        "tle_line2": "2 32060  97.3825 112.1576 0003469   9.7260 350.4044 15.23882673 15704"
      },
      "geometry": {
        "type": "Point",
        "coordinates": [
          113.25511437702123,
          -4.473642346555103
        ]
      }
    },
    {
      "type": "Feature",
      "properties": {
        "norad_id": 32289,
        "name": "YAOGAN-3",
        "group": "resource",
        "lat": -18.055613408360955,
        "lon": -160.70963323902026,
        "alt_km": 603.781740120995,
        "timestamp": "2025-12-21T07:34:34.197195+00:00",
        "meta_object_name": "YAOGAN-3",
        "meta_object_id": "2007-055A",
        "meta_epoch": "2025-12-20T22:37:50.003040",
        "meta_mean_motion": 14.89891227,
        "meta_eccentricity": 0.00011245,
        "meta_inclination": 97.8355,
        "meta_ra_of_asc_node": 21.494,
        "meta_arg_of_pericenter": 73.8178,
        "meta_mean_anomaly": 286.3163,
        "meta_ephemeris_type": 0,
        "meta_classification_type": "U",
        "meta_norad_cat_id": 32289,
        "meta_element_set_no": 999,
        "meta_rev_at_epoch": 97931,
        "meta_bstar": 0.00011345768,
        "meta_mean_motion_dot": 1.035e-05,
        "meta_mean_motion_ddot": 0,
        "tle_line1": "1 32289U 07055A   25354.94293985  .00001035  00000+0  11346-3 0  9995",
        "tle_line2": "2 32289  97.8355  21.4940 0001124  73.8178 286.3163 14.89891227979314"
      },
      "geometry": {
        "type": "Point",
        "coordinates": [
          -160.70963323902026,
          -18.055613408360955
        ]
      }
    }
  ]
}